JILIN-1 GAOFEN 3A       
1 44312U 19032C   26068.74542089  .00016264  00000+0  55381-3 0  9993
2 44312  44.9746 183.2861 0002618 111.2900 248.8263 15.30271310372592
STARLINK-35953          
1 66637U 25271W   26068.47547738  .00009356  00000+0  32775-3 0  9991
2 66637  53.1578 140.9441 0001440  79.2591 280.8572 15.30184966 17535
